STARLINK-37107          
1 68294U 26057A   26094.83335647 -.01352556  00000+0 -70992-2 0  9996
2 68294  97.2824 218.4851 0001192  73.0495 301.6118 15.83527851  3360
STARLINK-37147          
1 68295U 26057B   26094.83335647 -.01353124  00000+0 -70883-2 0  9998
2 68295  97.2818 218.4857 0001116  82.2664 296.5444 15.83571200  3356
STARLINK-37142          
1 68296U 26057C   26094.83335647 -.01385864  00000+0 -72667-2 0  9997
2 68296  97.2808 218.4909 0001312  74.4107 317.2359 15.83621563  3249
STARLINK-37115          
1 68297U 26057D   26094.83335647 -.01359269  00000+0 -71241-2 0  9995
2 68297  97.2807 218.4881 0001203  82.2553 305.1901 15.83572890  3246
STARLINK-36355          
1 68298U 26057E   26094.83335647 -.01352116  00000+0 -70743-2 0  9996
2 68298  97.2814 218.4872 0000976  88.5875 294.4354 15.83596307  3518
STARLINK-37118          
1 68299U 26057F   26094.83335647 -.01484390  00000+0 -76767-2 0  9999
2 68299  97.2800 218.4938 0001362  68.5842 331.7470 15.83638871  3358
STARLINK-36875          
1 68300U 26057G   26094.83335647 -.01459098  00000+0 -75440-2 0  9996
2 68300  97.2806 218.4923 0001375  69.2959 326.8312 15.83597567  3415
STARLINK-37099          
1 68301U 26057H   26094.83335647 -.01525377  00000+0 -79411-2 0  9993
2 68301  97.2797 218.4960 0001428  73.5338 331.3628 15.83574144  3242
STARLINK-37007          
1 68302U 26057J   26094.83335647 -.01551963  00000+0 -81628-2 0  9997
2 68302  97.2787 218.4987 0001310  82.9215 331.0605 15.83409039  3465
STARLINK-36300          
1 68303U 26057K   26094.83335647 -.01547833  00000+0 -81164-2 0  9994
2 68303  97.2792 218.4968 0001319  82.9194 326.6174 15.83465104  3518
STARLINK-36849          
1 68304U 26057L   26094.83335647 -.01568706  00000+0 -82501-2 0  9993
2 68304  97.2789 218.5009 0001433  70.5453 347.6523 15.83440855  3416
STARLINK-36277          
1 68305U 26057M   26094.83335647 -.01571653  00000+0 -82884-2 0  9993
2 68305  97.2777 218.5035 0001388  80.6431 346.2631 15.83388770  3579
